NORAD_CAT_ID,OBJECT_NAME,OBJECT_TYPE,EPOCH,MEAN_MOTION,ECCENTRICITY,INCLINATION,RA_OF_ASC_NODE,ARG_OF_PERICENTER,MEAN_ANOMALY,BSTAR,MEAN_MOTION_DOT,MEAN_MOTION_DDOT,TLE_LINE0,TLE_LINE1,TLE_LINE2,SEMIMAJOR_AXIS,PERIOD,APOGEE,PERIGEE,DECAYED
52284.0,STARLINK-3561,PAYLOAD,2024-04-17 21:23:42,15.08822715,0.0001525,53.2169,320.2332,65.7365,294.3786,-0.00015168,-2.7e-05,0.0,0 STARLINK-3561,1 52284U 22041Z   24108.89146953 -.00002700  00000-0 -15168-3 0  9995,2 52284  53.2169 320.2332 0001525  65.7365 294.3786 15.08822715111437,6917.933,95.439,540.853,538.743,0.0
52284.0,STARLINK-3561,PAYLOAD,2024-04-18 00:34:29,15.08819608,0.0001621,53.2178,319.6409,79.924,280.1935,-0.00018112,-3.168e-05,0.0,0 STARLINK-3561,1 52284U 22041Z   24109.02395467 -.00003168  00000-0 -18112-3 0  9998,2 52284  53.2178 319.6409 0001621  79.9240 280.1935 15.08819608110233,6917.943,95.439,540.929,538.686,0.0
52284.0,STARLINK-3561,PAYLOAD,2024-04-18 19:39:06,15.08837619,0.00016,53.2161,316.0739,60.3144,299.8008,3.0847e-05,2.03e-06,0.0,0 STARLINK-3561,1 52284U 22041Z   24109.81882811  .00000203  00000-0  30847-4 0  9994,2 52284  53.2161 316.0739 0001600  60.3144 299.8008 15.08837619111574,6917.888,95.438,540.86,538.646,0.0
52284.0,STARLINK-3561,PAYLOAD,2024-04-18 21:14:29,15.08842183,0.000173,53.2173,315.7731,67.1908,292.9267,0.00014547,2.028e-05,0.0,0 STARLINK-3561,1 52284U 22041Z   24109.88506663  .00002028  00000-0  14547-3 0  9994,2 52284  53.2173 315.7731 0001730  67.1908 292.9267 15.08842183110361,6917.874,95.437,540.936,538.542,0.0
52284.0,STARLINK-3561,PAYLOAD,2024-04-19 13:08:21,15.0884608,0.0001694,53.2171,312.8048,79.3388,280.7795,0.00038757,5.887e-05,0.0,0 STARLINK-3561,1 52284U 22041Z   24110.54746737  .00005887  00000-0  38757-3 0  9992,2 52284  53.2171 312.8048 0001694  79.3388 280.7795 15.08846080110466,6917.862,95.437,540.899,538.555,0.0
52284.0,STARLINK-3561,PAYLOAD,2024-04-19 21:05:16,15.0884755,0.0001614,53.2173,311.3155,86.4343,273.6833,0.00045625,6.982e-05,0.0,0 STARLINK-3561,1 52284U 22041Z   24110.87866719  .00006982  00000-0  45625-3 0  9990,2 52284  53.2173 311.3155 0001614  86.4343 273.6833 15.08847550111731,6917.857,95.437,540.839,538.606,0.0
52284.0,STARLINK-3561,PAYLOAD,2024-04-20 12:59:07,15.08851568,0.0001678,53.2174,308.3452,73.0169,287.1007,0.00022167,3.243e-05,0.0,0 STARLINK-3561,1 52284U 22041Z   24111.54106127  .00003243  00000-0  22167-3 0  9998,2 52284  53.2174 308.3452 0001678  73.0169 287.1007 15.08851568110619,6917.845,95.437,540.871,538.549,0.0
52284.0,STARLINK-3561,PAYLOAD,2024-04-20 19:20:41,15.08824615,0.0001696,53.2167,307.153,71.0179,289.0997,-0.00031779,-5.34e-05,0.0,0 STARLINK-3561,1 52284U 22041Z   24111.80603540 -.00005340  00000-0 -31779-3 0  9999,2 52284  53.2167 307.1530 0001696  71.0179 289.0997 15.08824615111875,6917.927,95.439,540.966,538.619,0.0
52284.0,STARLINK-3561,PAYLOAD,2024-04-21 12:49:55,15.08833347,0.0001437,53.217,303.8749,118.0074,242.1064,-6.0229e-05,-1.246e-05,0.0,0 STARLINK-3561,1 52284U 22041Z   24112.53467223 -.00001246  00000-0 -60229-4 0  9990,2 52284  53.2170 303.8749 0001437 118.0074 242.1064 15.08833347110767,6917.901,95.438,540.76,538.772,0.0
52284.0,STARLINK-3561,PAYLOAD,2024-04-21 22:22:14,15.08846504,0.0001409,53.2171,302.0934,90.6637,269.4517,0.00027965,4.166e-05,0.0,0 STARLINK-3561,1 52284U 22041Z   24112.93210829  .00004166  00000-0  27965-3 0  9993,2 52284  53.2171 302.0934 0001409  90.6637 269.4517 15.08846504110825,6917.861,95.437,540.7,538.751,0.0
52284.0,STARLINK-3561,PAYLOAD,2024-04-22 19:02:15,15.08829244,0.0001401,53.2169,298.2269,101.9097,258.2052,0.00017151,2.442e-05,0.0,0 STARLINK-3561,1 52284U 22041Z   24113.79323777  .00002442  00000-0  17151-3 0  9996,2 52284  53.2169 298.2269 0001401 101.9097 258.2052 15.08829244112179,6917.913,95.438,540.747,538.809,0.0
52284.0,STARLINK-3561,PAYLOAD,2024-04-23 18:53:02,15.08843959,0.0001274,53.2173,293.7685,91.7905,268.3232,4.5343e-05,4.34e-06,0.0,0 STARLINK-3561,1 52284U 22041Z   24114.78683277  .00000434  00000-0  45343-4 0  9994,2 52284  53.2173 293.7685 0001274  91.7905 268.3232 15.08843959112326,6917.868,95.437,540.615,538.852,0.0
52284.0,STARLINK-3561,PAYLOAD,2024-04-24 12:22:17,15.08835289,0.0001343,53.2171,290.4973,104.217,255.8972,0.00014818,2.071e-05,0.0,0 STARLINK-3561,1 52284U 22041Z   24115.51547581  .00002071  00000-0  14818-3 0  9994,2 52284  53.2171 290.4973 0001343 104.2170 255.8972 15.08835289112430,6917.895,95.438,540.689,538.831,0.0
52284.0,STARLINK-3561,PAYLOAD,2024-04-24 17:08:26,15.08832349,0.000143,53.2175,289.605,115.9506,244.1634,0.00011396,1.526e-05,0.0,0 STARLINK-3561,1 52284U 22041Z   24115.71419898  .00001526  00000-0  11396-3 0  9997,2 52284  53.2175 289.6050 0001430 115.9506 244.1634 15.08832349111247,6917.904,95.438,540.758,538.78,0.0
52284.0,STARLINK-3561,PAYLOAD,2024-04-25 18:34:36,15.08841287,0.0001266,53.2173,284.8473,107.329,252.7841,4.66e-05,4.54e-06,0.0,0 STARLINK-3561,1 52284U 22041Z   24116.77403782  .00000454  00000-0  46600-4 0  9995,2 52284  53.2173 284.8473 0001266 107.3290 252.7841 15.08841287112622,6917.876,95.437,540.617,538.866,0.0
52284.0,STARLINK-3561,PAYLOAD,2024-04-25 21:45:23,15.08842434,0.0001268,53.2173,284.2524,107.8265,252.2865,5.5455e-05,5.95e-06,0.0,0 STARLINK-3561,1 52284U 22041Z   24116.90651733  .00000595  00000-0  55455-4 0  9995,2 52284  53.2173 284.2524 0001268 107.8265 252.2865 15.08842434111425,6917.873,95.437,540.615,538.861,0.0
52284.0,STARLINK-3561,PAYLOAD,2024-04-26 16:50:00,15.08838287,0.0001218,53.2173,280.6839,101.8454,258.2674,0.00010438,1.374e-05,0.0,0 STARLINK-3561,1 52284U 22041Z   24117.70139907  .00001374  00000-0  10438-3 0  9995,2 52284  53.2173 280.6839 0001218 101.8454 258.2674 15.08838287111541,6917.886,95.438,540.593,538.908,0.0
52284.0,STARLINK-3561,PAYLOAD,2024-04-27 03:57:41,15.08854966,0.0001272,53.2178,278.6013,91.6981,268.4157,0.00021369,3.116e-05,0.0,0 STARLINK-3561,1 52284U 22041Z   24118.16506500  .00003116  00000-0  21369-3 0  9994,2 52284  53.2178 278.6013 0001272  91.6981 268.4157 15.08854966112832,6917.835,95.437,540.58,538.82,0.0
52284.0,STARLINK-3561,PAYLOAD,2024-04-27 10:19:15,15.08832726,0.0001457,53.2166,277.4149,109.0835,251.0315,-4.3776e-05,-9.84e-06,0.0,0 STARLINK-3561,1 52284U 22041Z   24118.43004486 -.00000984  00000-0 -43776-4 0  9999,2 52284  53.2166 277.4149 0001457 109.0835 251.0315 15.08832726112871,6917.903,95.438,540.776,538.76,0.0
52284.0,STARLINK-3561,PAYLOAD,2024-04-27 18:16:10,15.08843085,0.0001253,53.2177,275.9258,94.4431,265.6705,8.3781e-05,1.046e-05,0.0,0 STARLINK-3561,1 52284U 22041Z   24118.76123649  .00001046  00000-0  83781-4 0  9996,2 52284  53.2177 275.9258 0001253  94.4431 265.6705 15.08843085112920,6917.871,95.437,540.603,538.869,0.0
52284.0,STARLINK-3561,PAYLOAD,2024-04-28 10:10:03,15.08823835,0.0001497,53.2199,272.9519,96.4896,263.6266,-7.6755e-05,-1.509e-05,0.0,0 STARLINK-3561,1 52284U 22041Z   24119.42365244 -.00001509  00000-0 -76755-4 0  9998,2 52284  53.2199 272.9519 0001497  96.4896 263.6266 15.08823835113021,6917.93,95.439,540.83,538.759,0.0
52284.0,STARLINK-3561,PAYLOAD,2024-04-28 19:42:20,15.08846975,0.0001306,53.2183,271.168,92.8741,267.2401,-3.1669e-05,-7.92e-06,0.0,0 STARLINK-3561,1 52284U 22041Z   24119.82107624 -.00000792  00000-0 -31669-4 0  9996,2 52284  53.2183 271.1680 0001306  92.8741 267.2401 15.08846975113089,6917.859,95.437,540.628,538.821,0.0
52284.0,STARLINK-3561,PAYLOAD,2024-04-29 13:11:36,15.08824158,0.000125,53.2192,267.8991,103.0053,257.1078,0.00019231,2.773e-05,0.0,0 STARLINK-3561,1 52284U 22041Z   24120.54972393  .00002773  00000-0  19231-3 0  9999,2 52284  53.2192 267.8991 0001250 103.0053 257.1078 15.08824158113194,6917.929,95.439,540.659,538.929,0.0
52284.0,STARLINK-3561,PAYLOAD,2024-04-29 14:46:59,15.08823438,0.0001221,53.2193,267.6022,99.6912,260.4218,0.00017642,2.52e-05,0.0,0 STARLINK-3561,1 52284U 22041Z   24120.61596548  .00002520  00000-0  17642-3 0  9995,2 52284  53.2193 267.6022 0001221  99.6912 260.4218 15.08823438111988,6917.931,95.439,540.641,538.951,0.0
52284.0,STARLINK-3561,PAYLOAD,2024-04-29 16:22:22,15.08833199,0.0001381,53.2188,267.305,101.4884,258.6264,6.6132e-05,7.65e-06,0.0,0 STARLINK-3561,1 52284U 22041Z   24120.68220264  .00000765  00000-0  66132-4 0  9999,2 52284  53.2188 267.3050 0001381 101.4884 258.6264 15.08833199111993,6917.901,95.438,540.722,538.811,0.0
52284.0,STARLINK-3561,PAYLOAD,2024-04-30 13:02:23,15.08830986,0.0001327,53.2182,263.4402,87.1393,272.9751,0.00016546,2.346e-05,0.0,0 STARLINK-3561,1 52284U 22041Z   24121.54332294  .00002346  00000-0  16546-3 0  9992,2 52284  53.2182 263.4402 0001327  87.1393 272.9751 15.08830986113342,6917.908,95.438,540.691,538.855,0.0
52284.0,STARLINK-3561,PAYLOAD,2024-04-30 14:37:46,15.08829963,0.0001294,53.2187,263.143,86.8346,273.2794,0.00016196,2.29e-05,0.0,0 STARLINK-3561,1 52284U 22041Z   24121.60956405  .00002290  00000-0  16196-3 0  9994,2 52284  53.2187 263.1430 0001294  86.8346 273.2794 15.08829963112132,6917.911,95.438,540.671,538.881,0.0
52284.0,STARLINK-3561,PAYLOAD,2024-04-30 16:13:09,15.08834858,0.0001294,53.2183,262.8441,91.2776,268.8364,7.3005e-05,8.74e-06,0.0,0 STARLINK-3561,1 52284U 22041Z   24121.67580359  .00000874  00000-0  73005-4 0  9991,2 52284  53.2183 262.8441 0001294  91.2776 268.8364 15.08834858112146,6917.896,95.438,540.656,538.866,0.0
52284.0,STARLINK-3561,PAYLOAD,2024-05-01 16:03:56,15.08825599,0.0001149,53.2179,258.3827,94.5917,265.5207,0.00034547,5.212e-05,0.0,0 STARLINK-3561,1 52284U 22041Z   24122.66940373  .00005212  00000-0  34547-3 0  9995,2 52284  53.2179 258.3827 0001149  94.5917 265.5207 15.08825599113515,6917.924,95.438,540.584,538.995,0.0
52284.0,STARLINK-3561,PAYLOAD,2024-05-02 01:36:13,15.08853487,0.0001311,53.219,256.5997,91.1229,268.9913,0.00014911,2.087e-05,0.0,0 STARLINK-3561,1 52284U 22041Z   24123.06682795  .00002087  00000-0  14911-3 0  9991,2 52284  53.2190 256.5997 0001311  91.1229 268.9913 15.08853487113570,6917.839,95.437,540.611,538.797,0.0
